[{"OBJECT_NAME":"ICEYE-X4","OBJECT_ID":"2019-038D","EPOCH":"2026-03-09T23:53:58.416000","MEAN_MOTION":15.26985132,"ECCENTRICITY":0.00122769,"INCLINATION":97.8888,"RA_OF_ASC_NODE":96.1923,"ARG_OF_PERICENTER":293.9914,"MEAN_ANOMALY":66.0038,"EPHEMERIS_TYPE":0,"CLASSIFICATION_TYPE":"U","NORAD_CAT_ID":44390,"ELEMENT_SET_NO":999,"REV_AT_EPOCH":36665,"BSTAR":0.00049915294,"MEAN_MOTION_DOT":0.00013179,"MEAN_MOTION_DDOT":0},{"OBJECT_NAME":"STARLINK-35366","OBJECT_ID":"2025-263AD","EPOCH":"2026-03-09T03:16:21.009792","MEAN_MOTION":15.27591667,"ECCENTRICITY":0.00072204,"INCLINATION":43.0014,"RA_OF_ASC_NODE":353.8669,"ARG_OF_PERICENTER":234.1942,"MEAN_ANOMALY":125.8239,"EPHEMERIS_TYPE":0,"CLASSIFICATION_TYPE":"U","NORAD_CAT_ID":66512,"ELEMENT_SET_NO":999,"REV_AT_EPOCH":1881,"BSTAR":0.0010385692,"MEAN_MOTION_DOT":0.00028456,"MEAN_MOTION_DDOT":0}]
